{
"type": "FeatureCollection",
"name": "portfolio",
"crs": { "type": "name", "properties": { "name": "urn:ogc:def:crs:OGC:1.3:CRS84" } },
"features": [
{ "type": "Feature", "properties": { "fid": 1, "name": "Florence Airport", "site": "Florence", "description": null, "from": "2018-08-27", "to": "2018-10-01", "img1": null, "img2": null }, "geometry": { "type": "MultiPoint", "coordinates": [ [ 11.203311867525303, 43.810372585096594 ] ] } },
{ "type": "Feature", "properties": { "fid": 2, "name": "Hama Project", "site": "Università degli Studi di Milano | Natioanl Museum of Denmark | Hama", "description": "Ordinary Lives in Extraordinary Times: A New View of the Earliest Urban Societies in Bronze Age Syria", "from": "2022-05-01", "to": "2023-04-30", "img1": null, "img2": null }, "geometry": { "type": "MultiPoint", "coordinates": [ [ 9.194169733210677, 45.460499080036797 ], [ 12.574509832106719, 55.674721136154567 ], [ 36.749263310717609, 35.136452823137105 ] ] } },
{ "type": "Feature", "properties": { "fid": 4, "name": "Big-DEA", "site": "Università degli Studi di Milano | Ebla Region", "description": "“Big Data and Early Archives (Big-DEA). Measuring Settlement Dynamics and Environmental Exploitation in the Ebla Region during the 3rd Millennium BC: Archaeological Record, Cuneiform Texts, and Remote Sensing (PRIN 2017)”", "from": null, "to": null, "img1": "assets/images/bd_gis.png", "img2": "assets/images/bd_site.png" }, "geometry": { "type": "MultiPoint", "coordinates": [ [ 9.194693215179122, 45.460138305396974 ] ] } },
{ "type": "Feature", "properties": { "fid": 5, "name": "Ciclovia del Sole", "site": "Bologna Region", "description": "Aerophotogrammetric survey of strategic areas for the design of the \"Ciclovia del Sole,\" delivering outputs that included point clouds, digital terrain models (DTM), and floor plans generated in a GIS environment.", "from": null, "to": null, "img1": "assets/images/crevalcore.png", "img2": "assets/images/crevalcore2.png" }, "geometry": { "type": "MultiPoint", "coordinates": [ [ 11.246258433441085, 44.389991789984343 ], [ 11.234720325701661, 44.377380095532949 ], [ 11.234040780705961, 44.376214487102807 ], [ 11.241334091753526, 44.386145754071165 ], [ 11.278836481203532, 44.431057071599298 ], [ 11.150282140923846, 44.725085337393615 ], [ 11.268626789549423, 44.40819321393159 ] ] } },
{ "type": "Feature", "properties": { "fid": 3, "name": "Superbonus 110%", "site": "Parma Region", "description": "Drone-based photogrammetric surveys of various residential buildings for the Superbonus 110% design, in collaboration with Eco Care Building. Additionally, CAD renderings of the elevations and floor plans were produced.", "from": null, "to": null, "img1": "assets/images/orto_cad.png", "img2": "assets/images/cad.png" }, "geometry": { "type": "MultiPoint", "coordinates": [ [ 10.326172867505187, 44.798991537568469 ] ] } },
{ "type": "Feature", "properties": { "fid": 6, "name": " Archaeological map of the Province of Monza and Brianza", "site": "Province of Monza and Brianza", "description": "erophotogrammetric survey by drone of several sites of probable archaeological interest, in order to further the investigations for the creation of the archaeological map of the Province of Monza and Brianza.", "from": null, "to": null, "img1": null, "img2": null }, "geometry": { "type": "MultiPoint", "coordinates": [ [ 9.218996386903607, 45.610950103815206 ] ] } },
{ "type": "Feature", "properties": { "fid": 7, "name": "Ponte di Olina", "site": "Pavullo (MO)", "description": "Integrated laser scanning and drone photogrammetry survey of the Olina bridge, for the purpose of planning the restoration interventions. In collaboration with the engineering firm LEONI E BONI srl.", "from": null, "to": null, "img1": "assets/images/Olina1.jpg", "img2": null }, "geometry": { "type": "MultiPoint", "coordinates": [ [ 10.78279930825091, 44.298475011501374 ] ] } },
{ "type": "Feature", "properties": { "fid": 8, "name": "Drone-based photogrammetric survey of the Old Bridge in Introd", "site": "Introd (AO)", "description": "Survey aimed not only at preparing educational panels but also at drafting a future restoration project. Therefore, after the field survey activities, an interpretative stratigraphic analysis of the structure was conducted at a reproduction scale of 1:20", "from": null, "to": null, "img1": null, "img2": null }, "geometry": { "type": "MultiPoint", "coordinates": [ [ 7.185231472282331, 45.689970804877291 ] ] } },
{ "type": "Feature", "properties": { "fid": 9, "name": "SS 79 Ternana", "site": "Rieti (RI)", "description": "Planimetric and altimetric topographic survey using GNSS (GPS) and a Total Station of an 18 km section of SS 79 Ternana near Rieti for a road barrier rehabilitation project.", "from": null, "to": null, "img1": null, "img2": null }, "geometry": { "type": "MultiPoint", "coordinates": [ [ 12.822293164710905, 42.391508945920869 ] ] } },
{ "type": "Feature", "properties": { "fid": 10, "name": "Plano-altimetric Survey", "site": "Sasso Marconi (BO)", "description": "Planimetric and altimetric topographic survey using GNSS (GPS) and a Total Station of a section of road and stream near Sasso Marconi (BO) for a road deviation project and bridge design.", "from": null, "to": null, "img1": "assets/images/sasso2.png", "img2": "assets/images/sasso.png" }, "geometry": { "type": "MultiPoint", "coordinates": [ [ 11.268565441737314, 44.415788544977168 ] ] } },
{ "type": "Feature", "properties": { "fid": 11, "name": "Sestri Levante - Recco gas pipeline", "site": "Liguria", "description": "Drone photogrammetric surveys of four areas of archaeological interest as part of the Sestri Levante - Recco gas pipeline project, with the delivery of a 3D model, DEM, contour lines, and orthophotos, as well as aerial photographic documentation.", "from": null, "to": null, "img1": "assets/images/tugio.png", "img2": "assets/images/DEM_Castello.png" }, "geometry": { "type": "MultiPoint", "coordinates": [ [ 9.252732964502464, 44.372788447749485 ] ] } },
{ "type": "Feature", "properties": { "fid": 12, "name": "Monte Croce Guardia", "site": "Arcevia (AN)", "description": "Aerophotogrammetric survey of the Monte Croce Guardia summit, near an area of archaeological interest under investigation, with the delivery of a 3D model, DEM, contour lines, and an orthophoto.", "from": null, "to": null, "img1": "assets/images/orto.png", "img2": "assets/images/DEM.png" }, "geometry": { "type": "MultiPoint", "coordinates": [ [ 12.93832075366365, 43.49347609956768 ] ] } },
{ "type": "Feature", "properties": { "fid": 13, "name": "Castello Vecchio", "site": "Pont-Saint-Martin", "description": "Drone-based photogrammetric survey of the Old Castle in Pont-Saint-Martin aimed at drafting a restoration project, with restitution of nadir ortophoto and ortophotos of the elevations of the walls", "from": null, "to": null, "img1": null, "img2": null }, "geometry": { "type": "MultiPoint", "coordinates": [ [ 7.801156427288238, 45.601339733094719 ] ] } }
]
}
